{
  "features": [
    {
      "geometry": null,
      "properties": {
        "address": "인천광역시 연수구 동춘동 786-2 외1필지",
        "approval_date": null,
        "category": "증축",
        "construction_status": "administrative_record_only_not_confirmed_active",
        "coord_valid": false,
        "coordinate_limitations": "상가 주소 위치를 이용한 추정 위치; 공사 현장/측량 좌표 아님; 큰 필지 내 실제 공사 위치와 다를 수 있음",
        "coordinate_source": "소상공인시장진흥공단 상가주소 위치 기반 추정(동일 지번 전체주소 정확일치)",
        "coordinate_status": "unmatched",
        "facility_id": "15029299:1",
        "main_use": "노유자시설",
        "name": "노유자시설",
        "permit_date": "2026-01-20",
        "retrieved_at": "2026-09-06",
        "source_as_of": "2026-03-09",
        "source_url": "https://www.data.go.kr/data/15029299/fileData.do",
        "start_date": "2026-01-27",
        "use_approved": false
      },
      "type": "Feature"
    },
    {
      "geometry": null,
      "properties": {
        "address": "인천광역시 연수구 동춘동 동춘1구역 23 5",
        "approval_date": null,
        "category": "신축",
        "construction_status": "administrative_record_only_not_confirmed_active",
        "coord_valid": false,
        "coordinate_limitations": "상가 주소 위치를 이용한 추정 위치; 공사 현장/측량 좌표 아님; 큰 필지 내 실제 공사 위치와 다를 수 있음",
        "coordinate_source": "소상공인시장진흥공단 상가주소 위치 기반 추정(동일 지번 전체주소 정확일치)",
        "coordinate_status": "unmatched",
        "facility_id": "15029299:10",
        "main_use": "단독주택",
        "name": "단독주택",
        "permit_date": "2025-08-18",
        "retrieved_at": "2026-09-06",
        "source_as_of": "2026-03-09",
        "source_url": "https://www.data.go.kr/data/15029299/fileData.do",
        "start_date": "2025-09-05",
        "use_approved": false
      },
      "type": "Feature"
    },
    {
      "geometry": null,
      "properties": {
        "address": "인천광역시 연수구 동춘동 820-14 외3필지",
        "approval_date": null,
        "category": "증축",
        "construction_status": "administrative_record_only_not_confirmed_active",
        "coord_valid": false,
        "coordinate_limitations": "상가 주소 위치를 이용한 추정 위치; 공사 현장/측량 좌표 아님; 큰 필지 내 실제 공사 위치와 다를 수 있음",
        "coordinate_source": "소상공인시장진흥공단 상가주소 위치 기반 추정(동일 지번 전체주소 정확일치)",
        "coordinate_status": "unmatched",
        "facility_id": "15029299:11",
        "main_use": "제2종근린생활시설",
        "name": "제2종근린생활시설",
        "permit_date": "2025-08-13",
        "retrieved_at": "2026-09-06",
        "source_as_of": "2026-03-09",
        "source_url": "https://www.data.go.kr/data/15029299/fileData.do",
        "start_date": "2025-12-22",
        "use_approved": false
      },
      "type": "Feature"
    },
    {
      "geometry": null,
      "properties": {
        "address": "인천광역시 연수구 동춘동 동춘1구역 도시개발사업지구 12 6",
        "approval_date": "2026-01-09",
        "category": "신축",
        "construction_status": "administrative_record_only_not_confirmed_active",
        "coord_valid": false,
        "coordinate_limitations": "상가 주소 위치를 이용한 추정 위치; 공사 현장/측량 좌표 아님; 큰 필지 내 실제 공사 위치와 다를 수 있음",
        "coordinate_source": "소상공인시장진흥공단 상가주소 위치 기반 추정(동일 지번 전체주소 정확일치)",
        "coordinate_status": "unmatched",
        "facility_id": "15029299:12",
        "main_use": "제2종근린생활시설",
        "name": "제2종근린생활시설",
        "permit_date": "2025-08-01",
        "retrieved_at": "2026-09-06",
        "source_as_of": "2026-03-09",
        "source_url": "https://www.data.go.kr/data/15029299/fileData.do",
        "start_date": "2025-08-20",
        "use_approved": true
      },
      "type": "Feature"
    },
    {
      "geometry": null,
      "properties": {
        "address": "인천광역시 연수구 동춘동 698-7",
        "approval_date": null,
        "category": "증축",
        "construction_status": "administrative_record_only_not_confirmed_active",
        "coord_valid": false,
        "coordinate_limitations": "상가 주소 위치를 이용한 추정 위치; 공사 현장/측량 좌표 아님; 큰 필지 내 실제 공사 위치와 다를 수 있음",
        "coordinate_source": "소상공인시장진흥공단 상가주소 위치 기반 추정(동일 지번 전체주소 정확일치)",
        "coordinate_status": "unmatched",
        "facility_id": "15029299:13",
        "main_use": "제1종근린생활시설",
        "name": "제1종근린생활시설",
        "permit_date": "2025-07-24",
        "retrieved_at": "2026-09-06",
        "source_as_of": "2026-03-09",
        "source_url": "https://www.data.go.kr/data/15029299/fileData.do",
        "start_date": "2025-09-16",
        "use_approved": false
      },
      "type": "Feature"
    },
    {
      "geometry": null,
      "properties": {
        "address": "인천광역시 연수구 연수동 486-1",
        "approval_date": "2026-01-23",
        "category": "신축",
        "construction_status": "administrative_record_only_not_confirmed_active",
        "coord_valid": false,
        "coordinate_limitations": "상가 주소 위치를 이용한 추정 위치; 공사 현장/측량 좌표 아님; 큰 필지 내 실제 공사 위치와 다를 수 있음",
        "coordinate_source": "소상공인시장진흥공단 상가주소 위치 기반 추정(동일 지번 전체주소 정확일치)",
        "coordinate_status": "unmatched",
        "facility_id": "15029299:14",
        "main_use": "단독주택",
        "name": "단독주택",
        "permit_date": "2025-05-29",
        "retrieved_at": "2026-09-06",
        "source_as_of": "2026-03-09",
        "source_url": "https://www.data.go.kr/data/15029299/fileData.do",
        "start_date": "2025-07-04",
        "use_approved": true
      },
      "type": "Feature"
    },
    {
      "geometry": null,
      "properties": {
        "address": "인천광역시 연수구 청학동 466-1",
        "approval_date": null,
        "category": "신축",
        "construction_status": "administrative_record_only_not_confirmed_active",
        "coord_valid": false,
        "coordinate_limitations": "상가 주소 위치를 이용한 추정 위치; 공사 현장/측량 좌표 아님; 큰 필지 내 실제 공사 위치와 다를 수 있음",
        "coordinate_source": "소상공인시장진흥공단 상가주소 위치 기반 추정(동일 지번 전체주소 정확일치)",
        "coordinate_status": "unmatched",
        "facility_id": "15029299:15",
        "main_use": "자동차관련시설",
        "name": "자동차관련시설",
        "permit_date": "2025-05-12",
        "retrieved_at": "2026-09-06",
        "source_as_of": "2026-03-09",
        "source_url": "https://www.data.go.kr/data/15029299/fileData.do",
        "start_date": "2025-12-22",
        "use_approved": false
      },
      "type": "Feature"
    },
    {
      "geometry": null,
      "properties": {
        "address": "인천광역시 연수구 연수동 508-22 외2필지",
        "approval_date": "2025-12-10",
        "category": "대수선",
        "construction_status": "administrative_record_only_not_confirmed_active",
        "coord_valid": false,
        "coordinate_limitations": "상가 주소 위치를 이용한 추정 위치; 공사 현장/측량 좌표 아님; 큰 필지 내 실제 공사 위치와 다를 수 있음",
        "coordinate_source": "소상공인시장진흥공단 상가주소 위치 기반 추정(동일 지번 전체주소 정확일치)",
        "coordinate_status": "unmatched",
        "facility_id": "15029299:16",
        "main_use": "제2종근린생활시설",
        "name": "제2종근린생활시설",
        "permit_date": "2025-05-08",
        "retrieved_at": "2026-09-06",
        "source_as_of": "2026-03-09",
        "source_url": "https://www.data.go.kr/data/15029299/fileData.do",
        "start_date": "2025-06-13",
        "use_approved": true
      },
      "type": "Feature"
    },
    {
      "geometry": null,
      "properties": {
        "address": "인천광역시 연수구 옥련동 423-4 외2필지",
        "approval_date": null,
        "category": "신축",
        "construction_status": "administrative_record_only_not_confirmed_active",
        "coord_valid": false,
        "coordinate_limitations": "상가 주소 위치를 이용한 추정 위치; 공사 현장/측량 좌표 아님; 큰 필지 내 실제 공사 위치와 다를 수 있음",
        "coordinate_source": "소상공인시장진흥공단 상가주소 위치 기반 추정(동일 지번 전체주소 정확일치)",
        "coordinate_status": "unmatched",
        "facility_id": "15029299:17",
        "main_use": "제2종근린생활시설",
        "name": "제2종근린생활시설",
        "permit_date": "2025-04-29",
        "retrieved_at": "2026-09-06",
        "source_as_of": "2026-03-09",
        "source_url": "https://www.data.go.kr/data/15029299/fileData.do",
        "start_date": "2025-10-28",
        "use_approved": false
      },
      "type": "Feature"
    },
    {
      "geometry": null,
      "properties": {
        "address": "인천광역시 연수구 옥련동 569-7",
        "approval_date": "2025-12-04",
        "category": "신축",
        "construction_status": "administrative_record_only_not_confirmed_active",
        "coord_valid": false,
        "coordinate_limitations": "상가 주소 위치를 이용한 추정 위치; 공사 현장/측량 좌표 아님; 큰 필지 내 실제 공사 위치와 다를 수 있음",
        "coordinate_source": "소상공인시장진흥공단 상가주소 위치 기반 추정(동일 지번 전체주소 정확일치)",
        "coordinate_status": "unmatched",
        "facility_id": "15029299:18",
        "main_use": "제2종근린생활시설",
        "name": "제2종근린생활시설",
        "permit_date": "2025-04-28",
        "retrieved_at": "2026-09-06",
        "source_as_of": "2026-03-09",
        "source_url": "https://www.data.go.kr/data/15029299/fileData.do",
        "start_date": "2025-07-21",
        "use_approved": true
      },
      "type": "Feature"
    },
    {
      "geometry": null,
      "properties": {
        "address": "인천광역시 연수구 청학동 산 53-2 외3필지",
        "approval_date": null,
        "category": "신축",
        "construction_status": "administrative_record_only_not_confirmed_active",
        "coord_valid": false,
        "coordinate_limitations": "상가 주소 위치를 이용한 추정 위치; 공사 현장/측량 좌표 아님; 큰 필지 내 실제 공사 위치와 다를 수 있음",
        "coordinate_source": "소상공인시장진흥공단 상가주소 위치 기반 추정(동일 지번 전체주소 정확일치)",
        "coordinate_status": "unmatched",
        "facility_id": "15029299:19",
        "main_use": "문화및집회시설",
        "name": "문화및집회시설",
        "permit_date": "2025-04-24",
        "retrieved_at": "2026-09-06",
        "source_as_of": "2026-03-09",
        "source_url": "https://www.data.go.kr/data/15029299/fileData.do",
        "start_date": "2025-04-29",
        "use_approved": false
      },
      "type": "Feature"
    },
    {
      "geometry": null,
      "properties": {
        "address": "인천광역시 연수구 동춘동 동춘1도시개발사업구역 25 1",
        "approval_date": null,
        "category": "신축",
        "construction_status": "administrative_record_only_not_confirmed_active",
        "coord_valid": false,
        "coordinate_limitations": "상가 주소 위치를 이용한 추정 위치; 공사 현장/측량 좌표 아님; 큰 필지 내 실제 공사 위치와 다를 수 있음",
        "coordinate_source": "소상공인시장진흥공단 상가주소 위치 기반 추정(동일 지번 전체주소 정확일치)",
        "coordinate_status": "unmatched",
        "facility_id": "15029299:2",
        "main_use": "단독주택",
        "name": "단독주택",
        "permit_date": "2026-01-09",
        "retrieved_at": "2026-09-06",
        "source_as_of": "2026-03-09",
        "source_url": "https://www.data.go.kr/data/15029299/fileData.do",
        "start_date": "2026-03-09",
        "use_approved": false
      },
      "type": "Feature"
    },
    {
      "geometry": null,
      "properties": {
        "address": "인천광역시 연수구 동춘동 1114-1",
        "approval_date": null,
        "category": "증축",
        "construction_status": "administrative_record_only_not_confirmed_active",
        "coord_valid": false,
        "coordinate_limitations": "상가 주소 위치를 이용한 추정 위치; 공사 현장/측량 좌표 아님; 큰 필지 내 실제 공사 위치와 다를 수 있음",
        "coordinate_source": "소상공인시장진흥공단 상가주소 위치 기반 추정(동일 지번 전체주소 정확일치)",
        "coordinate_status": "unmatched",
        "facility_id": "15029299:20",
        "main_use": "종교시설",
        "name": "종교시설",
        "permit_date": "2025-04-14",
        "retrieved_at": "2026-09-06",
        "source_as_of": "2026-03-09",
        "source_url": "https://www.data.go.kr/data/15029299/fileData.do",
        "start_date": "2025-10-29",
        "use_approved": false
      },
      "type": "Feature"
    },
    {
      "geometry": {
        "coordinates": [
          126.67874450351,
          37.4212644331146
        ],
        "type": "Point"
      },
      "properties": {
        "address": "인천광역시 연수구 연수동 541-2",
        "approval_date": null,
        "category": "신축",
        "construction_status": "administrative_record_only_not_confirmed_active",
        "coord_valid": true,
        "coordinate_limitations": "상가 주소 위치를 이용한 추정 위치; 공사 현장/측량 좌표 아님; 큰 필지 내 실제 공사 위치와 다를 수 있음",
        "coordinate_source": "소상공인시장진흥공단 상가주소 위치 기반 추정(동일 지번 전체주소 정확일치)",
        "coordinate_status": "estimated_from_exact_parcel_address",
        "facility_id": "15029299:21",
        "main_use": "제1종근린생활시설",
        "name": "제1종근린생활시설",
        "permit_date": "2025-03-05",
        "retrieved_at": "2026-09-06",
        "source_as_of": "2026-03-09",
        "source_url": "https://www.data.go.kr/data/15029299/fileData.do",
        "start_date": "2025-06-04",
        "use_approved": false
      },
      "type": "Feature"
    },
    {
      "geometry": {
        "coordinates": [
          126.651823536432,
          37.41762019488745
        ],
        "type": "Point"
      },
      "properties": {
        "address": "인천광역시 연수구 옥련동 561-1",
        "approval_date": "2025-08-13",
        "category": "대수선",
        "construction_status": "administrative_record_only_not_confirmed_active",
        "coord_valid": true,
        "coordinate_limitations": "상가 주소 위치를 이용한 추정 위치; 공사 현장/측량 좌표 아님; 큰 필지 내 실제 공사 위치와 다를 수 있음",
        "coordinate_source": "소상공인시장진흥공단 상가주소 위치 기반 추정(동일 지번 전체주소 정확일치)",
        "coordinate_status": "estimated_from_exact_parcel_address",
        "facility_id": "15029299:22",
        "main_use": "제2종근린생활시설",
        "name": "제2종근린생활시설",
        "permit_date": "2025-02-26",
        "retrieved_at": "2026-09-06",
        "source_as_of": "2026-03-09",
        "source_url": "https://www.data.go.kr/data/15029299/fileData.do",
        "start_date": "2025-05-27",
        "use_approved": true
      },
      "type": "Feature"
    },
    {
      "geometry": null,
      "properties": {
        "address": "인천광역시 연수구 연수동 581-2",
        "approval_date": null,
        "category": "신축",
        "construction_status": "administrative_record_only_not_confirmed_active",
        "coord_valid": false,
        "coordinate_limitations": "상가 주소 위치를 이용한 추정 위치; 공사 현장/측량 좌표 아님; 큰 필지 내 실제 공사 위치와 다를 수 있음",
        "coordinate_source": "소상공인시장진흥공단 상가주소 위치 기반 추정(동일 지번 전체주소 정확일치)",
        "coordinate_status": "unmatched",
        "facility_id": "15029299:23",
        "main_use": "운동시설",
        "name": "운동시설",
        "permit_date": "2025-02-24",
        "retrieved_at": "2026-09-06",
        "source_as_of": "2026-03-09",
        "source_url": "https://www.data.go.kr/data/15029299/fileData.do",
        "start_date": "2025-04-10",
        "use_approved": false
      },
      "type": "Feature"
    },
    {
      "geometry": null,
      "properties": {
        "address": "인천광역시 연수구 동춘동 795-8 외1필지",
        "approval_date": "2025-05-08",
        "category": "증축",
        "construction_status": "administrative_record_only_not_confirmed_active",
        "coord_valid": false,
        "coordinate_limitations": "상가 주소 위치를 이용한 추정 위치; 공사 현장/측량 좌표 아님; 큰 필지 내 실제 공사 위치와 다를 수 있음",
        "coordinate_source": "소상공인시장진흥공단 상가주소 위치 기반 추정(동일 지번 전체주소 정확일치)",
        "coordinate_status": "unmatched",
        "facility_id": "15029299:24",
        "main_use": "제2종근린생활시설",
        "name": "제2종근린생활시설",
        "permit_date": "2025-02-18",
        "retrieved_at": "2026-09-06",
        "source_as_of": "2026-03-09",
        "source_url": "https://www.data.go.kr/data/15029299/fileData.do",
        "start_date": "2025-03-07",
        "use_approved": true
      },
      "type": "Feature"
    },
    {
      "geometry": null,
      "properties": {
        "address": "인천광역시 연수구 동춘동 820-20",
        "approval_date": "2025-10-27",
        "category": "신축",
        "construction_status": "administrative_record_only_not_confirmed_active",
        "coord_valid": false,
        "coordinate_limitations": "상가 주소 위치를 이용한 추정 위치; 공사 현장/측량 좌표 아님; 큰 필지 내 실제 공사 위치와 다를 수 있음",
        "coordinate_source": "소상공인시장진흥공단 상가주소 위치 기반 추정(동일 지번 전체주소 정확일치)",
        "coordinate_status": "unmatched",
        "facility_id": "15029299:25",
        "main_use": "제2종근린생활시설",
        "name": "제2종근린생활시설",
        "permit_date": "2025-02-06",
        "retrieved_at": "2026-09-06",
        "source_as_of": "2026-03-09",
        "source_url": "https://www.data.go.kr/data/15029299/fileData.do",
        "start_date": "2025-03-19",
        "use_approved": true
      },
      "type": "Feature"
    },
    {
      "geometry": null,
      "properties": {
        "address": "인천광역시 연수구 동춘동 동춘1도시개발사업구역 18블록 15로트",
        "approval_date": "2025-08-13",
        "category": "신축",
        "construction_status": "administrative_record_only_not_confirmed_active",
        "coord_valid": false,
        "coordinate_limitations": "상가 주소 위치를 이용한 추정 위치; 공사 현장/측량 좌표 아님; 큰 필지 내 실제 공사 위치와 다를 수 있음",
        "coordinate_source": "소상공인시장진흥공단 상가주소 위치 기반 추정(동일 지번 전체주소 정확일치)",
        "coordinate_status": "unmatched",
        "facility_id": "15029299:26",
        "main_use": "단독주택",
        "name": "단독주택",
        "permit_date": "2024-12-30",
        "retrieved_at": "2026-09-06",
        "source_as_of": "2026-03-09",
        "source_url": "https://www.data.go.kr/data/15029299/fileData.do",
        "start_date": "2025-01-13",
        "use_approved": true
      },
      "type": "Feature"
    },
    {
      "geometry": null,
      "properties": {
        "address": "인천광역시 연수구 동춘동 1146-3 외1필지",
        "approval_date": null,
        "category": "신축",
        "construction_status": "administrative_record_only_not_confirmed_active",
        "coord_valid": false,
        "coordinate_limitations": "상가 주소 위치를 이용한 추정 위치; 공사 현장/측량 좌표 아님; 큰 필지 내 실제 공사 위치와 다를 수 있음",
        "coordinate_source": "소상공인시장진흥공단 상가주소 위치 기반 추정(동일 지번 전체주소 정확일치)",
        "coordinate_status": "unmatched",
        "facility_id": "15029299:27",
        "main_use": "제2종근린생활시설",
        "name": "제2종근린생활시설",
        "permit_date": "2024-11-27",
        "retrieved_at": "2026-09-06",
        "source_as_of": "2026-03-09",
        "source_url": "https://www.data.go.kr/data/15029299/fileData.do",
        "start_date": "2024-12-04",
        "use_approved": false
      },
      "type": "Feature"
    },
    {
      "geometry": {
        "coordinates": [
          126.655942498327,
          37.4148481187146
        ],
        "type": "Point"
      },
      "properties": {
        "address": "인천광역시 연수구 동춘동 809-1",
        "approval_date": "2025-03-10",
        "category": "대수선",
        "construction_status": "administrative_record_only_not_confirmed_active",
        "coord_valid": true,
        "coordinate_limitations": "상가 주소 위치를 이용한 추정 위치; 공사 현장/측량 좌표 아님; 큰 필지 내 실제 공사 위치와 다를 수 있음",
        "coordinate_source": "소상공인시장진흥공단 상가주소 위치 기반 추정(동일 지번 전체주소 정확일치)",
        "coordinate_status": "estimated_from_exact_parcel_address",
        "facility_id": "15029299:28",
        "main_use": "문화및집회시설",
        "name": "문화및집회시설",
        "permit_date": "2024-11-21",
        "retrieved_at": "2026-09-06",
        "source_as_of": "2026-03-09",
        "source_url": "https://www.data.go.kr/data/15029299/fileData.do",
        "start_date": "2024-11-28",
        "use_approved": true
      },
      "type": "Feature"
    },
    {
      "geometry": {
        "coordinates": [
          126.652892843891,
          37.4147851434064
        ],
        "type": "Point"
      },
      "properties": {
        "address": "인천광역시 연수구 동춘동 819-4",
        "approval_date": "2025-05-20",
        "category": "증축",
        "construction_status": "administrative_record_only_not_confirmed_active",
        "coord_valid": true,
        "coordinate_limitations": "상가 주소 위치를 이용한 추정 위치; 공사 현장/측량 좌표 아님; 큰 필지 내 실제 공사 위치와 다를 수 있음",
        "coordinate_source": "소상공인시장진흥공단 상가주소 위치 기반 추정(동일 지번 전체주소 정확일치)",
        "coordinate_status": "estimated_from_exact_parcel_address",
        "facility_id": "15029299:29",
        "main_use": "제2종근린생활시설",
        "name": "제2종근린생활시설",
        "permit_date": "2024-11-15",
        "retrieved_at": "2026-09-06",
        "source_as_of": "2026-03-09",
        "source_url": "https://www.data.go.kr/data/15029299/fileData.do",
        "start_date": "2024-12-18",
        "use_approved": true
      },
      "type": "Feature"
    },
    {
      "geometry": {
        "coordinates": [
          126.594812678513,
          37.3510425405327
        ],
        "type": "Point"
      },
      "properties": {
        "address": "인천광역시 연수구 송도동 348",
        "approval_date": "2026-02-03",
        "category": "가설건축물축조허가",
        "construction_status": "administrative_record_only_not_confirmed_active",
        "coord_valid": true,
        "coordinate_limitations": "상가 주소 위치를 이용한 추정 위치; 공사 현장/측량 좌표 아님; 큰 필지 내 실제 공사 위치와 다를 수 있음",
        "coordinate_source": "소상공인시장진흥공단 상가주소 위치 기반 추정(동일 지번 전체주소 정확일치)",
        "coordinate_status": "estimated_from_exact_parcel_address",
        "facility_id": "15029299:3",
        "main_use": "가설건축물",
        "name": "가설건축물",
        "permit_date": "2026-01-08",
        "retrieved_at": "2026-09-06",
        "source_as_of": "2026-03-09",
        "source_url": "https://www.data.go.kr/data/15029299/fileData.do",
        "start_date": "2026-01-23",
        "use_approved": true
      },
      "type": "Feature"
    },
    {
      "geometry": null,
      "properties": {
        "address": "인천광역시 연수구 동춘동 동춘1구역도시개발사업 29블록 3로트",
        "approval_date": null,
        "category": "신축",
        "construction_status": "administrative_record_only_not_confirmed_active",
        "coord_valid": false,
        "coordinate_limitations": "상가 주소 위치를 이용한 추정 위치; 공사 현장/측량 좌표 아님; 큰 필지 내 실제 공사 위치와 다를 수 있음",
        "coordinate_source": "소상공인시장진흥공단 상가주소 위치 기반 추정(동일 지번 전체주소 정확일치)",
        "coordinate_status": "unmatched",
        "facility_id": "15029299:30",
        "main_use": "단독주택",
        "name": "단독주택",
        "permit_date": "2024-11-07",
        "retrieved_at": "2026-09-06",
        "source_as_of": "2026-03-09",
        "source_url": "https://www.data.go.kr/data/15029299/fileData.do",
        "start_date": "2024-12-03",
        "use_approved": false
      },
      "type": "Feature"
    },
    {
      "geometry": null,
      "properties": {
        "address": "인천광역시 연수구 동춘동 동춘1구역 19 1",
        "approval_date": null,
        "category": "신축",
        "construction_status": "administrative_record_only_not_confirmed_active",
        "coord_valid": false,
        "coordinate_limitations": "상가 주소 위치를 이용한 추정 위치; 공사 현장/측량 좌표 아님; 큰 필지 내 실제 공사 위치와 다를 수 있음",
        "coordinate_source": "소상공인시장진흥공단 상가주소 위치 기반 추정(동일 지번 전체주소 정확일치)",
        "coordinate_status": "unmatched",
        "facility_id": "15029299:31",
        "main_use": "단독주택",
        "name": "단독주택",
        "permit_date": "2024-10-16",
        "retrieved_at": "2026-09-06",
        "source_as_of": "2026-03-09",
        "source_url": "https://www.data.go.kr/data/15029299/fileData.do",
        "start_date": "2024-11-04",
        "use_approved": false
      },
      "type": "Feature"
    },
    {
      "geometry": null,
      "properties": {
        "address": "인천광역시 연수구 옥련동 송도역세권 도시개발구역 문1",
        "approval_date": null,
        "category": "신축",
        "construction_status": "administrative_record_only_not_confirmed_active",
        "coord_valid": false,
        "coordinate_limitations": "상가 주소 위치를 이용한 추정 위치; 공사 현장/측량 좌표 아님; 큰 필지 내 실제 공사 위치와 다를 수 있음",
        "coordinate_source": "소상공인시장진흥공단 상가주소 위치 기반 추정(동일 지번 전체주소 정확일치)",
        "coordinate_status": "unmatched",
        "facility_id": "15029299:32",
        "main_use": "제1종근린생활시설",
        "name": "제1종근린생활시설",
        "permit_date": "2024-10-08",
        "retrieved_at": "2026-09-06",
        "source_as_of": "2026-03-09",
        "source_url": "https://www.data.go.kr/data/15029299/fileData.do",
        "start_date": "2024-12-23",
        "use_approved": false
      },
      "type": "Feature"
    },
    {
      "geometry": null,
      "properties": {
        "address": "인천광역시 연수구 동춘동 동춘1구역도시개발구역 18블록 13로트",
        "approval_date": null,
        "category": "신축",
        "construction_status": "administrative_record_only_not_confirmed_active",
        "coord_valid": false,
        "coordinate_limitations": "상가 주소 위치를 이용한 추정 위치; 공사 현장/측량 좌표 아님; 큰 필지 내 실제 공사 위치와 다를 수 있음",
        "coordinate_source": "소상공인시장진흥공단 상가주소 위치 기반 추정(동일 지번 전체주소 정확일치)",
        "coordinate_status": "unmatched",
        "facility_id": "15029299:33",
        "main_use": "단독주택",
        "name": "단독주택",
        "permit_date": "2024-09-20",
        "retrieved_at": "2026-09-06",
        "source_as_of": "2026-03-09",
        "source_url": "https://www.data.go.kr/data/15029299/fileData.do",
        "start_date": "2024-10-15",
        "use_approved": false
      },
      "type": "Feature"
    },
    {
      "geometry": null,
      "properties": {
        "address": "인천광역시 연수구 청학동 466-11",
        "approval_date": null,
        "category": "신축",
        "construction_status": "administrative_record_only_not_confirmed_active",
        "coord_valid": false,
        "coordinate_limitations": "상가 주소 위치를 이용한 추정 위치; 공사 현장/측량 좌표 아님; 큰 필지 내 실제 공사 위치와 다를 수 있음",
        "coordinate_source": "소상공인시장진흥공단 상가주소 위치 기반 추정(동일 지번 전체주소 정확일치)",
        "coordinate_status": "unmatched",
        "facility_id": "15029299:34",
        "main_use": "업무시설",
        "name": "업무시설",
        "permit_date": "2024-08-29",
        "retrieved_at": "2026-09-06",
        "source_as_of": "2026-03-09",
        "source_url": "https://www.data.go.kr/data/15029299/fileData.do",
        "start_date": "2024-11-05",
        "use_approved": false
      },
      "type": "Feature"
    },
    {
      "geometry": {
        "coordinates": [
          126.654539316912,
          37.41784440542
        ],
        "type": "Point"
      },
      "properties": {
        "address": "인천광역시 연수구 옥련동 564-7",
        "approval_date": "2024-11-22",
        "category": "대수선",
        "construction_status": "administrative_record_only_not_confirmed_active",
        "coord_valid": true,
        "coordinate_limitations": "상가 주소 위치를 이용한 추정 위치; 공사 현장/측량 좌표 아님; 큰 필지 내 실제 공사 위치와 다를 수 있음",
        "coordinate_source": "소상공인시장진흥공단 상가주소 위치 기반 추정(동일 지번 전체주소 정확일치)",
        "coordinate_status": "estimated_from_exact_parcel_address",
        "facility_id": "15029299:35",
        "main_use": "제2종근린생활시설",
        "name": "제2종근린생활시설",
        "permit_date": "2024-07-08",
        "retrieved_at": "2026-09-06",
        "source_as_of": "2026-03-09",
        "source_url": "https://www.data.go.kr/data/15029299/fileData.do",
        "start_date": "2024-07-25",
        "use_approved": true
      },
      "type": "Feature"
    },
    {
      "geometry": null,
      "properties": {
        "address": "인천광역시 연수구 동춘동 1142-4 외2필지",
        "approval_date": "2024-09-13",
        "category": "신축",
        "construction_status": "administrative_record_only_not_confirmed_active",
        "coord_valid": false,
        "coordinate_limitations": "상가 주소 위치를 이용한 추정 위치; 공사 현장/측량 좌표 아님; 큰 필지 내 실제 공사 위치와 다를 수 있음",
        "coordinate_source": "소상공인시장진흥공단 상가주소 위치 기반 추정(동일 지번 전체주소 정확일치)",
        "coordinate_status": "unmatched",
        "facility_id": "15029299:36",
        "main_use": "제2종근린생활시설",
        "name": "제2종근린생활시설",
        "permit_date": "2024-03-27",
        "retrieved_at": "2026-09-06",
        "source_as_of": "2026-03-09",
        "source_url": "https://www.data.go.kr/data/15029299/fileData.do",
        "start_date": "2024-05-09",
        "use_approved": true
      },
      "type": "Feature"
    },
    {
      "geometry": null,
      "properties": {
        "address": "인천광역시 연수구 옥련동 송도역세권구역 위 1",
        "approval_date": "2024-09-09",
        "category": "신축",
        "construction_status": "administrative_record_only_not_confirmed_active",
        "coord_valid": false,
        "coordinate_limitations": "상가 주소 위치를 이용한 추정 위치; 공사 현장/측량 좌표 아님; 큰 필지 내 실제 공사 위치와 다를 수 있음",
        "coordinate_source": "소상공인시장진흥공단 상가주소 위치 기반 추정(동일 지번 전체주소 정확일치)",
        "coordinate_status": "unmatched",
        "facility_id": "15029299:37",
        "main_use": "위험물저장및처리시설",
        "name": "위험물저장및처리시설",
        "permit_date": "2024-03-18",
        "retrieved_at": "2026-09-06",
        "source_as_of": "2026-03-09",
        "source_url": "https://www.data.go.kr/data/15029299/fileData.do",
        "start_date": "2024-04-12",
        "use_approved": true
      },
      "type": "Feature"
    },
    {
      "geometry": {
        "coordinates": [
          126.6517085018,
          37.4192867322957
        ],
        "type": "Point"
      },
      "properties": {
        "address": "인천광역시 연수구 옥련동 539",
        "approval_date": null,
        "category": "대수선",
        "construction_status": "administrative_record_only_not_confirmed_active",
        "coord_valid": true,
        "coordinate_limitations": "상가 주소 위치를 이용한 추정 위치; 공사 현장/측량 좌표 아님; 큰 필지 내 실제 공사 위치와 다를 수 있음",
        "coordinate_source": "소상공인시장진흥공단 상가주소 위치 기반 추정(동일 지번 전체주소 정확일치)",
        "coordinate_status": "estimated_from_exact_parcel_address",
        "facility_id": "15029299:38",
        "main_use": "숙박시설",
        "name": "숙박시설",
        "permit_date": "2024-01-31",
        "retrieved_at": "2026-09-06",
        "source_as_of": "2026-03-09",
        "source_url": "https://www.data.go.kr/data/15029299/fileData.do",
        "start_date": "2024-04-02",
        "use_approved": false
      },
      "type": "Feature"
    },
    {
      "geometry": {
        "coordinates": [
          126.679379314023,
          37.4154546105429
        ],
        "type": "Point"
      },
      "properties": {
        "address": "인천광역시 연수구 연수동 594",
        "approval_date": null,
        "category": "대수선",
        "construction_status": "administrative_record_only_not_confirmed_active",
        "coord_valid": true,
        "coordinate_limitations": "상가 주소 위치를 이용한 추정 위치; 공사 현장/측량 좌표 아님; 큰 필지 내 실제 공사 위치와 다를 수 있음",
        "coordinate_source": "소상공인시장진흥공단 상가주소 위치 기반 추정(동일 지번 전체주소 정확일치)",
        "coordinate_status": "estimated_from_exact_parcel_address",
        "facility_id": "15029299:39",
        "main_use": "자동차관련시설",
        "name": "자동차관련시설",
        "permit_date": "2024-01-15",
        "retrieved_at": "2026-09-06",
        "source_as_of": "2026-03-09",
        "source_url": "https://www.data.go.kr/data/15029299/fileData.do",
        "start_date": "2024-07-05",
        "use_approved": false
      },
      "type": "Feature"
    },
    {
      "geometry": null,
      "properties": {
        "address": "인천광역시 연수구 동춘동 동춘1구역 16블럭 5로트",
        "approval_date": null,
        "category": "신축",
        "construction_status": "administrative_record_only_not_confirmed_active",
        "coord_valid": false,
        "coordinate_limitations": "상가 주소 위치를 이용한 추정 위치; 공사 현장/측량 좌표 아님; 큰 필지 내 실제 공사 위치와 다를 수 있음",
        "coordinate_source": "소상공인시장진흥공단 상가주소 위치 기반 추정(동일 지번 전체주소 정확일치)",
        "coordinate_status": "unmatched",
        "facility_id": "15029299:4",
        "main_use": "단독주택",
        "name": "단독주택",
        "permit_date": "2025-10-23",
        "retrieved_at": "2026-09-06",
        "source_as_of": "2026-03-09",
        "source_url": "https://www.data.go.kr/data/15029299/fileData.do",
        "start_date": "2025-10-30",
        "use_approved": false
      },
      "type": "Feature"
    },
    {
      "geometry": null,
      "properties": {
        "address": "인천광역시 연수구 선학동 401-1 외1필지",
        "approval_date": "2024-09-05",
        "category": "대수선",
        "construction_status": "administrative_record_only_not_confirmed_active",
        "coord_valid": false,
        "coordinate_limitations": "상가 주소 위치를 이용한 추정 위치; 공사 현장/측량 좌표 아님; 큰 필지 내 실제 공사 위치와 다를 수 있음",
        "coordinate_source": "소상공인시장진흥공단 상가주소 위치 기반 추정(동일 지번 전체주소 정확일치)",
        "coordinate_status": "unmatched",
        "facility_id": "15029299:40",
        "main_use": "제1종근린생활시설",
        "name": "제1종근린생활시설",
        "permit_date": "2023-12-26",
        "retrieved_at": "2026-09-06",
        "source_as_of": "2026-03-09",
        "source_url": "https://www.data.go.kr/data/15029299/fileData.do",
        "start_date": "2024-01-17",
        "use_approved": true
      },
      "type": "Feature"
    },
    {
      "geometry": {
        "coordinates": [
          126.683621277325,
          37.4059963589047
        ],
        "type": "Point"
      },
      "properties": {
        "address": "인천광역시 연수구 동춘동 926",
        "approval_date": "2024-02-15",
        "category": "대수선",
        "construction_status": "administrative_record_only_not_confirmed_active",
        "coord_valid": true,
        "coordinate_limitations": "상가 주소 위치를 이용한 추정 위치; 공사 현장/측량 좌표 아님; 큰 필지 내 실제 공사 위치와 다를 수 있음",
        "coordinate_source": "소상공인시장진흥공단 상가주소 위치 기반 추정(동일 지번 전체주소 정확일치)",
        "coordinate_status": "estimated_from_exact_parcel_address",
        "facility_id": "15029299:41",
        "main_use": "판매시설",
        "name": "판매시설",
        "permit_date": "2023-12-15",
        "retrieved_at": "2026-09-06",
        "source_as_of": "2026-03-09",
        "source_url": "https://www.data.go.kr/data/15029299/fileData.do",
        "start_date": "2024-01-10",
        "use_approved": true
      },
      "type": "Feature"
    },
    {
      "geometry": null,
      "properties": {
        "address": "인천광역시 연수구 동춘동 동춘1구역 24 2",
        "approval_date": "2024-11-15",
        "category": "신축",
        "construction_status": "administrative_record_only_not_confirmed_active",
        "coord_valid": false,
        "coordinate_limitations": "상가 주소 위치를 이용한 추정 위치; 공사 현장/측량 좌표 아님; 큰 필지 내 실제 공사 위치와 다를 수 있음",
        "coordinate_source": "소상공인시장진흥공단 상가주소 위치 기반 추정(동일 지번 전체주소 정확일치)",
        "coordinate_status": "unmatched",
        "facility_id": "15029299:42",
        "main_use": "단독주택",
        "name": "단독주택",
        "permit_date": "2023-12-11",
        "retrieved_at": "2026-09-06",
        "source_as_of": "2026-03-09",
        "source_url": "https://www.data.go.kr/data/15029299/fileData.do",
        "start_date": "2024-06-12",
        "use_approved": true
      },
      "type": "Feature"
    },
    {
      "geometry": null,
      "properties": {
        "address": "인천광역시 연수구 선학동 352",
        "approval_date": "2024-11-15",
        "category": "대수선",
        "construction_status": "administrative_record_only_not_confirmed_active",
        "coord_valid": false,
        "coordinate_limitations": "상가 주소 위치를 이용한 추정 위치; 공사 현장/측량 좌표 아님; 큰 필지 내 실제 공사 위치와 다를 수 있음",
        "coordinate_source": "소상공인시장진흥공단 상가주소 위치 기반 추정(동일 지번 전체주소 정확일치)",
        "coordinate_status": "unmatched",
        "facility_id": "15029299:43",
        "main_use": "공동주택",
        "name": "공동주택",
        "permit_date": "2023-11-27",
        "retrieved_at": "2026-09-06",
        "source_as_of": "2026-03-09",
        "source_url": "https://www.data.go.kr/data/15029299/fileData.do",
        "start_date": "2024-03-29",
        "use_approved": true
      },
      "type": "Feature"
    },
    {
      "geometry": null,
      "properties": {
        "address": "인천광역시 연수구 옥련동 산 51-3 외52필지",
        "approval_date": null,
        "category": "증축",
        "construction_status": "administrative_record_only_not_confirmed_active",
        "coord_valid": false,
        "coordinate_limitations": "상가 주소 위치를 이용한 추정 위치; 공사 현장/측량 좌표 아님; 큰 필지 내 실제 공사 위치와 다를 수 있음",
        "coordinate_source": "소상공인시장진흥공단 상가주소 위치 기반 추정(동일 지번 전체주소 정확일치)",
        "coordinate_status": "unmatched",
        "facility_id": "15029299:44",
        "main_use": "운수시설",
        "name": "운수시설",
        "permit_date": "2023-11-27",
        "retrieved_at": "2026-09-06",
        "source_as_of": "2026-03-09",
        "source_url": "https://www.data.go.kr/data/15029299/fileData.do",
        "start_date": "2024-06-11",
        "use_approved": false
      },
      "type": "Feature"
    },
    {
      "geometry": null,
      "properties": {
        "address": "인천광역시 연수구 동춘동 동춘1도시개발사업구역 16 블록 3 로트",
        "approval_date": "2024-03-25",
        "category": "신축",
        "construction_status": "administrative_record_only_not_confirmed_active",
        "coord_valid": false,
        "coordinate_limitations": "상가 주소 위치를 이용한 추정 위치; 공사 현장/측량 좌표 아님; 큰 필지 내 실제 공사 위치와 다를 수 있음",
        "coordinate_source": "소상공인시장진흥공단 상가주소 위치 기반 추정(동일 지번 전체주소 정확일치)",
        "coordinate_status": "unmatched",
        "facility_id": "15029299:45",
        "main_use": "단독주택",
        "name": "단독주택",
        "permit_date": "2023-08-16",
        "retrieved_at": "2026-09-06",
        "source_as_of": "2026-03-09",
        "source_url": "https://www.data.go.kr/data/15029299/fileData.do",
        "start_date": "2023-09-21",
        "use_approved": true
      },
      "type": "Feature"
    },
    {
      "geometry": {
        "coordinates": [
          126.657980643653,
          37.4137818247216
        ],
        "type": "Point"
      },
      "properties": {
        "address": "인천광역시 연수구 동춘동 803-10",
        "approval_date": "2024-06-18",
        "category": "신축",
        "construction_status": "administrative_record_only_not_confirmed_active",
        "coord_valid": true,
        "coordinate_limitations": "상가 주소 위치를 이용한 추정 위치; 공사 현장/측량 좌표 아님; 큰 필지 내 실제 공사 위치와 다를 수 있음",
        "coordinate_source": "소상공인시장진흥공단 상가주소 위치 기반 추정(동일 지번 전체주소 정확일치)",
        "coordinate_status": "estimated_from_exact_parcel_address",
        "facility_id": "15029299:46",
        "main_use": "제2종근린생활시설",
        "name": "제2종근린생활시설",
        "permit_date": "2023-08-13",
        "retrieved_at": "2026-09-06",
        "source_as_of": "2026-03-09",
        "source_url": "https://www.data.go.kr/data/15029299/fileData.do",
        "start_date": "2023-11-07",
        "use_approved": true
      },
      "type": "Feature"
    },
    {
      "geometry": null,
      "properties": {
        "address": "인천광역시 연수구 동춘동 동춘1구역 22 3",
        "approval_date": null,
        "category": "신축",
        "construction_status": "administrative_record_only_not_confirmed_active",
        "coord_valid": false,
        "coordinate_limitations": "상가 주소 위치를 이용한 추정 위치; 공사 현장/측량 좌표 아님; 큰 필지 내 실제 공사 위치와 다를 수 있음",
        "coordinate_source": "소상공인시장진흥공단 상가주소 위치 기반 추정(동일 지번 전체주소 정확일치)",
        "coordinate_status": "unmatched",
        "facility_id": "15029299:47",
        "main_use": "단독주택",
        "name": "단독주택",
        "permit_date": "2023-08-07",
        "retrieved_at": "2026-09-06",
        "source_as_of": "2026-03-09",
        "source_url": "https://www.data.go.kr/data/15029299/fileData.do",
        "start_date": "2023-08-29",
        "use_approved": false
      },
      "type": "Feature"
    },
    {
      "geometry": null,
      "properties": {
        "address": "인천광역시 연수구 연수동 220 외4필지",
        "approval_date": "2024-11-15",
        "category": "증축",
        "construction_status": "administrative_record_only_not_confirmed_active",
        "coord_valid": false,
        "coordinate_limitations": "상가 주소 위치를 이용한 추정 위치; 공사 현장/측량 좌표 아님; 큰 필지 내 실제 공사 위치와 다를 수 있음",
        "coordinate_source": "소상공인시장진흥공단 상가주소 위치 기반 추정(동일 지번 전체주소 정확일치)",
        "coordinate_status": "unmatched",
        "facility_id": "15029299:48",
        "main_use": "의료시설",
        "name": "의료시설",
        "permit_date": "2023-08-03",
        "retrieved_at": "2026-09-06",
        "source_as_of": "2026-03-09",
        "source_url": "https://www.data.go.kr/data/15029299/fileData.do",
        "start_date": "2023-10-25",
        "use_approved": true
      },
      "type": "Feature"
    },
    {
      "geometry": null,
      "properties": {
        "address": "인천광역시 연수구 동춘동 동춘1구역도시개발구역 23-1",
        "approval_date": "2024-12-10",
        "category": "신축",
        "construction_status": "administrative_record_only_not_confirmed_active",
        "coord_valid": false,
        "coordinate_limitations": "상가 주소 위치를 이용한 추정 위치; 공사 현장/측량 좌표 아님; 큰 필지 내 실제 공사 위치와 다를 수 있음",
        "coordinate_source": "소상공인시장진흥공단 상가주소 위치 기반 추정(동일 지번 전체주소 정확일치)",
        "coordinate_status": "unmatched",
        "facility_id": "15029299:49",
        "main_use": "단독주택",
        "name": "단독주택",
        "permit_date": "2023-07-31",
        "retrieved_at": "2026-09-06",
        "source_as_of": "2026-03-09",
        "source_url": "https://www.data.go.kr/data/15029299/fileData.do",
        "start_date": "2023-11-03",
        "use_approved": true
      },
      "type": "Feature"
    },
    {
      "geometry": null,
      "properties": {
        "address": "인천광역시 연수구 옥련동 580-11",
        "approval_date": null,
        "category": "신축",
        "construction_status": "administrative_record_only_not_confirmed_active",
        "coord_valid": false,
        "coordinate_limitations": "상가 주소 위치를 이용한 추정 위치; 공사 현장/측량 좌표 아님; 큰 필지 내 실제 공사 위치와 다를 수 있음",
        "coordinate_source": "소상공인시장진흥공단 상가주소 위치 기반 추정(동일 지번 전체주소 정확일치)",
        "coordinate_status": "unmatched",
        "facility_id": "15029299:5",
        "main_use": "제2종근린생활시설",
        "name": "제2종근린생활시설",
        "permit_date": "2025-09-24",
        "retrieved_at": "2026-09-06",
        "source_as_of": "2026-03-09",
        "source_url": "https://www.data.go.kr/data/15029299/fileData.do",
        "start_date": "2025-12-29",
        "use_approved": false
      },
      "type": "Feature"
    },
    {
      "geometry": null,
      "properties": {
        "address": "인천광역시 연수구 청학동 65-5 외2필지",
        "approval_date": null,
        "category": "신축",
        "construction_status": "administrative_record_only_not_confirmed_active",
        "coord_valid": false,
        "coordinate_limitations": "상가 주소 위치를 이용한 추정 위치; 공사 현장/측량 좌표 아님; 큰 필지 내 실제 공사 위치와 다를 수 있음",
        "coordinate_source": "소상공인시장진흥공단 상가주소 위치 기반 추정(동일 지번 전체주소 정확일치)",
        "coordinate_status": "unmatched",
        "facility_id": "15029299:50",
        "main_use": "제1종근린생활시설",
        "name": "제1종근린생활시설",
        "permit_date": "2023-07-28",
        "retrieved_at": "2026-09-06",
        "source_as_of": "2026-03-09",
        "source_url": "https://www.data.go.kr/data/15029299/fileData.do",
        "start_date": "2023-08-02",
        "use_approved": false
      },
      "type": "Feature"
    },
    {
      "geometry": null,
      "properties": {
        "address": "인천광역시 연수구 청학동 32-25",
        "approval_date": null,
        "category": "신축",
        "construction_status": "administrative_record_only_not_confirmed_active",
        "coord_valid": false,
        "coordinate_limitations": "상가 주소 위치를 이용한 추정 위치; 공사 현장/측량 좌표 아님; 큰 필지 내 실제 공사 위치와 다를 수 있음",
        "coordinate_source": "소상공인시장진흥공단 상가주소 위치 기반 추정(동일 지번 전체주소 정확일치)",
        "coordinate_status": "unmatched",
        "facility_id": "15029299:51",
        "main_use": "노유자시설",
        "name": "노유자시설",
        "permit_date": "2023-07-24",
        "retrieved_at": "2026-09-06",
        "source_as_of": "2026-03-09",
        "source_url": "https://www.data.go.kr/data/15029299/fileData.do",
        "start_date": "2023-08-01",
        "use_approved": false
      },
      "type": "Feature"
    },
    {
      "geometry": null,
      "properties": {
        "address": "인천광역시 연수구 동춘동 동춘1구역 도시개발사업 27블록 1로트",
        "approval_date": "2025-03-31",
        "category": "신축",
        "construction_status": "administrative_record_only_not_confirmed_active",
        "coord_valid": false,
        "coordinate_limitations": "상가 주소 위치를 이용한 추정 위치; 공사 현장/측량 좌표 아님; 큰 필지 내 실제 공사 위치와 다를 수 있음",
        "coordinate_source": "소상공인시장진흥공단 상가주소 위치 기반 추정(동일 지번 전체주소 정확일치)",
        "coordinate_status": "unmatched",
        "facility_id": "15029299:52",
        "main_use": "종교시설",
        "name": "종교시설",
        "permit_date": "2023-07-21",
        "retrieved_at": "2026-09-06",
        "source_as_of": "2026-03-09",
        "source_url": "https://www.data.go.kr/data/15029299/fileData.do",
        "start_date": "2023-08-17",
        "use_approved": true
      },
      "type": "Feature"
    },
    {
      "geometry": null,
      "properties": {
        "address": "인천광역시 연수구 동춘동 동춘1구역 도시개발사업지구 12블럭 1로트 외1필지",
        "approval_date": null,
        "category": "신축",
        "construction_status": "administrative_record_only_not_confirmed_active",
        "coord_valid": false,
        "coordinate_limitations": "상가 주소 위치를 이용한 추정 위치; 공사 현장/측량 좌표 아님; 큰 필지 내 실제 공사 위치와 다를 수 있음",
        "coordinate_source": "소상공인시장진흥공단 상가주소 위치 기반 추정(동일 지번 전체주소 정확일치)",
        "coordinate_status": "unmatched",
        "facility_id": "15029299:53",
        "main_use": "제2종근린생활시설",
        "name": "제2종근린생활시설",
        "permit_date": "2023-07-17",
        "retrieved_at": "2026-09-06",
        "source_as_of": "2026-03-09",
        "source_url": "https://www.data.go.kr/data/15029299/fileData.do",
        "start_date": "2023-09-27",
        "use_approved": false
      },
      "type": "Feature"
    },
    {
      "geometry": null,
      "properties": {
        "address": "인천광역시 연수구 동춘동 동춘1구역 18블록 7로트 외1필지",
        "approval_date": "2024-07-11",
        "category": "신축",
        "construction_status": "administrative_record_only_not_confirmed_active",
        "coord_valid": false,
        "coordinate_limitations": "상가 주소 위치를 이용한 추정 위치; 공사 현장/측량 좌표 아님; 큰 필지 내 실제 공사 위치와 다를 수 있음",
        "coordinate_source": "소상공인시장진흥공단 상가주소 위치 기반 추정(동일 지번 전체주소 정확일치)",
        "coordinate_status": "unmatched",
        "facility_id": "15029299:54",
        "main_use": "단독주택",
        "name": "단독주택",
        "permit_date": "2023-06-09",
        "retrieved_at": "2026-09-06",
        "source_as_of": "2026-03-09",
        "source_url": "https://www.data.go.kr/data/15029299/fileData.do",
        "start_date": "2023-06-21",
        "use_approved": true
      },
      "type": "Feature"
    },
    {
      "geometry": {
        "coordinates": [
          126.681121388825,
          37.4042146397894
        ],
        "type": "Point"
      },
      "properties": {
        "address": "인천광역시 연수구 동춘동 926-9",
        "approval_date": "2024-04-01",
        "category": "증축",
        "construction_status": "administrative_record_only_not_confirmed_active",
        "coord_valid": true,
        "coordinate_limitations": "상가 주소 위치를 이용한 추정 위치; 공사 현장/측량 좌표 아님; 큰 필지 내 실제 공사 위치와 다를 수 있음",
        "coordinate_source": "소상공인시장진흥공단 상가주소 위치 기반 추정(동일 지번 전체주소 정확일치)",
        "coordinate_status": "estimated_from_exact_parcel_address",
        "facility_id": "15029299:55",
        "main_use": "판매시설",
        "name": "판매시설",
        "permit_date": "2023-06-08",
        "retrieved_at": "2026-09-06",
        "source_as_of": "2026-03-09",
        "source_url": "https://www.data.go.kr/data/15029299/fileData.do",
        "start_date": "2023-11-07",
        "use_approved": true
      },
      "type": "Feature"
    },
    {
      "geometry": null,
      "properties": {
        "address": "인천광역시 연수구 동춘동 동춘1도시개발사업구역 16BL 4LOT",
        "approval_date": "2024-02-13",
        "category": "신축",
        "construction_status": "administrative_record_only_not_confirmed_active",
        "coord_valid": false,
        "coordinate_limitations": "상가 주소 위치를 이용한 추정 위치; 공사 현장/측량 좌표 아님; 큰 필지 내 실제 공사 위치와 다를 수 있음",
        "coordinate_source": "소상공인시장진흥공단 상가주소 위치 기반 추정(동일 지번 전체주소 정확일치)",
        "coordinate_status": "unmatched",
        "facility_id": "15029299:56",
        "main_use": "단독주택",
        "name": "단독주택",
        "permit_date": "2023-04-12",
        "retrieved_at": "2026-09-06",
        "source_as_of": "2026-03-09",
        "source_url": "https://www.data.go.kr/data/15029299/fileData.do",
        "start_date": "2023-05-08",
        "use_approved": true
      },
      "type": "Feature"
    },
    {
      "geometry": null,
      "properties": {
        "address": "인천광역시 연수구 동춘동 동춘1구역도시개발사업 31블록 5로트",
        "approval_date": "2023-11-10",
        "category": "신축",
        "construction_status": "administrative_record_only_not_confirmed_active",
        "coord_valid": false,
        "coordinate_limitations": "상가 주소 위치를 이용한 추정 위치; 공사 현장/측량 좌표 아님; 큰 필지 내 실제 공사 위치와 다를 수 있음",
        "coordinate_source": "소상공인시장진흥공단 상가주소 위치 기반 추정(동일 지번 전체주소 정확일치)",
        "coordinate_status": "unmatched",
        "facility_id": "15029299:57",
        "main_use": "자동차관련시설",
        "name": "자동차관련시설",
        "permit_date": "2023-03-30",
        "retrieved_at": "2026-09-06",
        "source_as_of": "2026-03-09",
        "source_url": "https://www.data.go.kr/data/15029299/fileData.do",
        "start_date": "2023-04-13",
        "use_approved": true
      },
      "type": "Feature"
    },
    {
      "geometry": null,
      "properties": {
        "address": "인천광역시 연수구 옥련동 79-1 외2필지",
        "approval_date": "2024-01-03",
        "category": "신축",
        "construction_status": "administrative_record_only_not_confirmed_active",
        "coord_valid": false,
        "coordinate_limitations": "상가 주소 위치를 이용한 추정 위치; 공사 현장/측량 좌표 아님; 큰 필지 내 실제 공사 위치와 다를 수 있음",
        "coordinate_source": "소상공인시장진흥공단 상가주소 위치 기반 추정(동일 지번 전체주소 정확일치)",
        "coordinate_status": "unmatched",
        "facility_id": "15029299:58",
        "main_use": "제1종근린생활시설",
        "name": "제1종근린생활시설",
        "permit_date": "2023-03-28",
        "retrieved_at": "2026-09-06",
        "source_as_of": "2026-03-09",
        "source_url": "https://www.data.go.kr/data/15029299/fileData.do",
        "start_date": "2023-09-22",
        "use_approved": true
      },
      "type": "Feature"
    },
    {
      "geometry": {
        "coordinates": [
          126.67581503634,
          37.4168414640655
        ],
        "type": "Point"
      },
      "properties": {
        "address": "인천광역시 연수구 청학동 498-10",
        "approval_date": "2024-02-08",
        "category": "용도변경",
        "construction_status": "administrative_record_only_not_confirmed_active",
        "coord_valid": true,
        "coordinate_limitations": "상가 주소 위치를 이용한 추정 위치; 공사 현장/측량 좌표 아님; 큰 필지 내 실제 공사 위치와 다를 수 있음",
        "coordinate_source": "소상공인시장진흥공단 상가주소 위치 기반 추정(동일 지번 전체주소 정확일치)",
        "coordinate_status": "estimated_from_exact_parcel_address",
        "facility_id": "15029299:59",
        "main_use": "제2종근린생활시설",
        "name": "제2종근린생활시설",
        "permit_date": "2023-03-09",
        "retrieved_at": "2026-09-06",
        "source_as_of": "2026-03-09",
        "source_url": "https://www.data.go.kr/data/15029299/fileData.do",
        "start_date": "2023-12-07",
        "use_approved": true
      },
      "type": "Feature"
    },
    {
      "geometry": {
        "coordinates": [
          126.681378527958,
          37.4101710528843
        ],
        "type": "Point"
      },
      "properties": {
        "address": "인천광역시 연수구 연수동 635-2",
        "approval_date": null,
        "category": "대수선",
        "construction_status": "administrative_record_only_not_confirmed_active",
        "coord_valid": true,
        "coordinate_limitations": "상가 주소 위치를 이용한 추정 위치; 공사 현장/측량 좌표 아님; 큰 필지 내 실제 공사 위치와 다를 수 있음",
        "coordinate_source": "소상공인시장진흥공단 상가주소 위치 기반 추정(동일 지번 전체주소 정확일치)",
        "coordinate_status": "estimated_from_exact_parcel_address",
        "facility_id": "15029299:6",
        "main_use": "업무시설",
        "name": "업무시설",
        "permit_date": "2025-09-11",
        "retrieved_at": "2026-09-06",
        "source_as_of": "2026-03-09",
        "source_url": "https://www.data.go.kr/data/15029299/fileData.do",
        "start_date": "2025-10-14",
        "use_approved": false
      },
      "type": "Feature"
    },
    {
      "geometry": null,
      "properties": {
        "address": "인천광역시 연수구 동춘동 동춘1도시개발사업구역 22 2",
        "approval_date": "2024-01-02",
        "category": "신축",
        "construction_status": "administrative_record_only_not_confirmed_active",
        "coord_valid": false,
        "coordinate_limitations": "상가 주소 위치를 이용한 추정 위치; 공사 현장/측량 좌표 아님; 큰 필지 내 실제 공사 위치와 다를 수 있음",
        "coordinate_source": "소상공인시장진흥공단 상가주소 위치 기반 추정(동일 지번 전체주소 정확일치)",
        "coordinate_status": "unmatched",
        "facility_id": "15029299:60",
        "main_use": "단독주택",
        "name": "단독주택",
        "permit_date": "2023-02-20",
        "retrieved_at": "2026-09-06",
        "source_as_of": "2026-03-09",
        "source_url": "https://www.data.go.kr/data/15029299/fileData.do",
        "start_date": "2023-03-15",
        "use_approved": true
      },
      "type": "Feature"
    },
    {
      "geometry": null,
      "properties": {
        "address": "인천광역시 연수구 옥련동 578-5 외1필지",
        "approval_date": "2024-10-22",
        "category": "증축",
        "construction_status": "administrative_record_only_not_confirmed_active",
        "coord_valid": false,
        "coordinate_limitations": "상가 주소 위치를 이용한 추정 위치; 공사 현장/측량 좌표 아님; 큰 필지 내 실제 공사 위치와 다를 수 있음",
        "coordinate_source": "소상공인시장진흥공단 상가주소 위치 기반 추정(동일 지번 전체주소 정확일치)",
        "coordinate_status": "unmatched",
        "facility_id": "15029299:61",
        "main_use": "교육연구시설",
        "name": "교육연구시설",
        "permit_date": "2023-01-18",
        "retrieved_at": "2026-09-06",
        "source_as_of": "2026-03-09",
        "source_url": "https://www.data.go.kr/data/15029299/fileData.do",
        "start_date": "2023-03-24",
        "use_approved": true
      },
      "type": "Feature"
    },
    {
      "geometry": {
        "coordinates": [
          126.678118887795,
          37.424902828436
        ],
        "type": "Point"
      },
      "properties": {
        "address": "인천광역시 연수구 연수동 479-7",
        "approval_date": "2023-09-27",
        "category": "신축",
        "construction_status": "administrative_record_only_not_confirmed_active",
        "coord_valid": true,
        "coordinate_limitations": "상가 주소 위치를 이용한 추정 위치; 공사 현장/측량 좌표 아님; 큰 필지 내 실제 공사 위치와 다를 수 있음",
        "coordinate_source": "소상공인시장진흥공단 상가주소 위치 기반 추정(동일 지번 전체주소 정확일치)",
        "coordinate_status": "estimated_from_exact_parcel_address",
        "facility_id": "15029299:62",
        "main_use": "단독주택",
        "name": "단독주택",
        "permit_date": "2022-12-14",
        "retrieved_at": "2026-09-06",
        "source_as_of": "2026-03-09",
        "source_url": "https://www.data.go.kr/data/15029299/fileData.do",
        "start_date": "2023-03-15",
        "use_approved": true
      },
      "type": "Feature"
    },
    {
      "geometry": null,
      "properties": {
        "address": "인천광역시 연수구 동춘동 동춘1구역 도시개발사업 13 8",
        "approval_date": null,
        "category": "신축",
        "construction_status": "administrative_record_only_not_confirmed_active",
        "coord_valid": false,
        "coordinate_limitations": "상가 주소 위치를 이용한 추정 위치; 공사 현장/측량 좌표 아님; 큰 필지 내 실제 공사 위치와 다를 수 있음",
        "coordinate_source": "소상공인시장진흥공단 상가주소 위치 기반 추정(동일 지번 전체주소 정확일치)",
        "coordinate_status": "unmatched",
        "facility_id": "15029299:63",
        "main_use": "종교시설",
        "name": "종교시설",
        "permit_date": "2022-12-07",
        "retrieved_at": "2026-09-06",
        "source_as_of": "2026-03-09",
        "source_url": "https://www.data.go.kr/data/15029299/fileData.do",
        "start_date": "2023-10-12",
        "use_approved": false
      },
      "type": "Feature"
    },
    {
      "geometry": null,
      "properties": {
        "address": "인천광역시 연수구 연수동 497-7",
        "approval_date": null,
        "category": "대수선",
        "construction_status": "administrative_record_only_not_confirmed_active",
        "coord_valid": false,
        "coordinate_limitations": "상가 주소 위치를 이용한 추정 위치; 공사 현장/측량 좌표 아님; 큰 필지 내 실제 공사 위치와 다를 수 있음",
        "coordinate_source": "소상공인시장진흥공단 상가주소 위치 기반 추정(동일 지번 전체주소 정확일치)",
        "coordinate_status": "unmatched",
        "facility_id": "15029299:64",
        "main_use": "제1종근린생활시설",
        "name": "제1종근린생활시설",
        "permit_date": "2022-10-19",
        "retrieved_at": "2026-09-06",
        "source_as_of": "2026-03-09",
        "source_url": "https://www.data.go.kr/data/15029299/fileData.do",
        "start_date": "2023-08-02",
        "use_approved": false
      },
      "type": "Feature"
    },
    {
      "geometry": null,
      "properties": {
        "address": "인천광역시 연수구 연수동 517-9",
        "approval_date": null,
        "category": "증축",
        "construction_status": "administrative_record_only_not_confirmed_active",
        "coord_valid": false,
        "coordinate_limitations": "상가 주소 위치를 이용한 추정 위치; 공사 현장/측량 좌표 아님; 큰 필지 내 실제 공사 위치와 다를 수 있음",
        "coordinate_source": "소상공인시장진흥공단 상가주소 위치 기반 추정(동일 지번 전체주소 정확일치)",
        "coordinate_status": "unmatched",
        "facility_id": "15029299:65",
        "main_use": "제1종근린생활시설",
        "name": "제1종근린생활시설",
        "permit_date": "2022-09-06",
        "retrieved_at": "2026-09-06",
        "source_as_of": "2026-03-09",
        "source_url": "https://www.data.go.kr/data/15029299/fileData.do",
        "start_date": "2023-07-10",
        "use_approved": false
      },
      "type": "Feature"
    },
    {
      "geometry": null,
      "properties": {
        "address": "인천광역시 연수구 동춘동 도시개발사업 24블록 11로트",
        "approval_date": "2023-11-24",
        "category": "신축",
        "construction_status": "administrative_record_only_not_confirmed_active",
        "coord_valid": false,
        "coordinate_limitations": "상가 주소 위치를 이용한 추정 위치; 공사 현장/측량 좌표 아님; 큰 필지 내 실제 공사 위치와 다를 수 있음",
        "coordinate_source": "소상공인시장진흥공단 상가주소 위치 기반 추정(동일 지번 전체주소 정확일치)",
        "coordinate_status": "unmatched",
        "facility_id": "15029299:66",
        "main_use": "단독주택",
        "name": "단독주택",
        "permit_date": "2022-08-26",
        "retrieved_at": "2026-09-06",
        "source_as_of": "2026-03-09",
        "source_url": "https://www.data.go.kr/data/15029299/fileData.do",
        "start_date": "2023-05-25",
        "use_approved": true
      },
      "type": "Feature"
    },
    {
      "geometry": null,
      "properties": {
        "address": "인천광역시 연수구 옥련동 481-2",
        "approval_date": "2024-05-13",
        "category": "신축",
        "construction_status": "administrative_record_only_not_confirmed_active",
        "coord_valid": false,
        "coordinate_limitations": "상가 주소 위치를 이용한 추정 위치; 공사 현장/측량 좌표 아님; 큰 필지 내 실제 공사 위치와 다를 수 있음",
        "coordinate_source": "소상공인시장진흥공단 상가주소 위치 기반 추정(동일 지번 전체주소 정확일치)",
        "coordinate_status": "unmatched",
        "facility_id": "15029299:67",
        "main_use": "제2종근린생활시설",
        "name": "제2종근린생활시설",
        "permit_date": "2022-06-16",
        "retrieved_at": "2026-09-06",
        "source_as_of": "2026-03-09",
        "source_url": "https://www.data.go.kr/data/15029299/fileData.do",
        "start_date": "2023-11-29",
        "use_approved": true
      },
      "type": "Feature"
    },
    {
      "geometry": null,
      "properties": {
        "address": "인천광역시 연수구 동춘동 동춘1구역 도시개발사업 26 10",
        "approval_date": "2024-11-15",
        "category": "신축",
        "construction_status": "administrative_record_only_not_confirmed_active",
        "coord_valid": false,
        "coordinate_limitations": "상가 주소 위치를 이용한 추정 위치; 공사 현장/측량 좌표 아님; 큰 필지 내 실제 공사 위치와 다를 수 있음",
        "coordinate_source": "소상공인시장진흥공단 상가주소 위치 기반 추정(동일 지번 전체주소 정확일치)",
        "coordinate_status": "unmatched",
        "facility_id": "15029299:68",
        "main_use": "단독주택",
        "name": "단독주택",
        "permit_date": "2022-06-10",
        "retrieved_at": "2026-09-06",
        "source_as_of": "2026-03-09",
        "source_url": "https://www.data.go.kr/data/15029299/fileData.do",
        "start_date": "2023-11-21",
        "use_approved": true
      },
      "type": "Feature"
    },
    {
      "geometry": {
        "coordinates": [
          126.683238165714,
          37.4245562511104
        ],
        "type": "Point"
      },
      "properties": {
        "address": "인천광역시 연수구 연수동 508-12",
        "approval_date": null,
        "category": "대수선",
        "construction_status": "administrative_record_only_not_confirmed_active",
        "coord_valid": true,
        "coordinate_limitations": "상가 주소 위치를 이용한 추정 위치; 공사 현장/측량 좌표 아님; 큰 필지 내 실제 공사 위치와 다를 수 있음",
        "coordinate_source": "소상공인시장진흥공단 상가주소 위치 기반 추정(동일 지번 전체주소 정확일치)",
        "coordinate_status": "estimated_from_exact_parcel_address",
        "facility_id": "15029299:69",
        "main_use": "제2종근린생활시설",
        "name": "제2종근린생활시설",
        "permit_date": "2022-03-14",
        "retrieved_at": "2026-09-06",
        "source_as_of": "2026-03-09",
        "source_url": "https://www.data.go.kr/data/15029299/fileData.do",
        "start_date": "2024-08-17",
        "use_approved": false
      },
      "type": "Feature"
    },
    {
      "geometry": null,
      "properties": {
        "address": "인천광역시 연수구 동춘동 동춘1도시개발사업구역 18블록 15로트",
        "approval_date": "2025-09-24",
        "category": "증축",
        "construction_status": "administrative_record_only_not_confirmed_active",
        "coord_valid": false,
        "coordinate_limitations": "상가 주소 위치를 이용한 추정 위치; 공사 현장/측량 좌표 아님; 큰 필지 내 실제 공사 위치와 다를 수 있음",
        "coordinate_source": "소상공인시장진흥공단 상가주소 위치 기반 추정(동일 지번 전체주소 정확일치)",
        "coordinate_status": "unmatched",
        "facility_id": "15029299:7",
        "main_use": "단독주택",
        "name": "단독주택",
        "permit_date": "2025-09-08",
        "retrieved_at": "2026-09-06",
        "source_as_of": "2026-03-09",
        "source_url": "https://www.data.go.kr/data/15029299/fileData.do",
        "start_date": "2025-09-11",
        "use_approved": true
      },
      "type": "Feature"
    },
    {
      "geometry": null,
      "properties": {
        "address": "인천광역시 연수구 옥련동 405-17 외2필지",
        "approval_date": "2024-09-13",
        "category": "신축",
        "construction_status": "administrative_record_only_not_confirmed_active",
        "coord_valid": false,
        "coordinate_limitations": "상가 주소 위치를 이용한 추정 위치; 공사 현장/측량 좌표 아님; 큰 필지 내 실제 공사 위치와 다를 수 있음",
        "coordinate_source": "소상공인시장진흥공단 상가주소 위치 기반 추정(동일 지번 전체주소 정확일치)",
        "coordinate_status": "unmatched",
        "facility_id": "15029299:70",
        "main_use": "공동주택",
        "name": "공동주택",
        "permit_date": "2021-12-09",
        "retrieved_at": "2026-09-06",
        "source_as_of": "2026-03-09",
        "source_url": "https://www.data.go.kr/data/15029299/fileData.do",
        "start_date": "2023-11-29",
        "use_approved": true
      },
      "type": "Feature"
    },
    {
      "geometry": null,
      "properties": {
        "address": "인천광역시 연수구 옥련동 산 3",
        "approval_date": null,
        "category": "신축",
        "construction_status": "administrative_record_only_not_confirmed_active",
        "coord_valid": false,
        "coordinate_limitations": "상가 주소 위치를 이용한 추정 위치; 공사 현장/측량 좌표 아님; 큰 필지 내 실제 공사 위치와 다를 수 있음",
        "coordinate_source": "소상공인시장진흥공단 상가주소 위치 기반 추정(동일 지번 전체주소 정확일치)",
        "coordinate_status": "unmatched",
        "facility_id": "15029299:71",
        "main_use": "제2종근린생활시설",
        "name": "제2종근린생활시설",
        "permit_date": "2021-10-28",
        "retrieved_at": "2026-09-06",
        "source_as_of": "2026-03-09",
        "source_url": "https://www.data.go.kr/data/15029299/fileData.do",
        "start_date": "2024-06-17",
        "use_approved": false
      },
      "type": "Feature"
    },
    {
      "geometry": null,
      "properties": {
        "address": "인천광역시 연수구 연수동 556",
        "approval_date": "2024-08-29",
        "category": "신축",
        "construction_status": "administrative_record_only_not_confirmed_active",
        "coord_valid": false,
        "coordinate_limitations": "상가 주소 위치를 이용한 추정 위치; 공사 현장/측량 좌표 아님; 큰 필지 내 실제 공사 위치와 다를 수 있음",
        "coordinate_source": "소상공인시장진흥공단 상가주소 위치 기반 추정(동일 지번 전체주소 정확일치)",
        "coordinate_status": "unmatched",
        "facility_id": "15029299:72",
        "main_use": "단독주택",
        "name": "단독주택",
        "permit_date": "2021-10-07",
        "retrieved_at": "2026-09-06",
        "source_as_of": "2026-03-09",
        "source_url": "https://www.data.go.kr/data/15029299/fileData.do",
        "start_date": "2023-11-14",
        "use_approved": true
      },
      "type": "Feature"
    },
    {
      "geometry": null,
      "properties": {
        "address": "인천광역시 연수구 연수동 570-9",
        "approval_date": "2025-04-11",
        "category": "신축",
        "construction_status": "administrative_record_only_not_confirmed_active",
        "coord_valid": false,
        "coordinate_limitations": "상가 주소 위치를 이용한 추정 위치; 공사 현장/측량 좌표 아님; 큰 필지 내 실제 공사 위치와 다를 수 있음",
        "coordinate_source": "소상공인시장진흥공단 상가주소 위치 기반 추정(동일 지번 전체주소 정확일치)",
        "coordinate_status": "unmatched",
        "facility_id": "15029299:73",
        "main_use": "단독주택",
        "name": "단독주택",
        "permit_date": "2019-11-14",
        "retrieved_at": "2026-09-06",
        "source_as_of": "2026-03-09",
        "source_url": "https://www.data.go.kr/data/15029299/fileData.do",
        "start_date": "2023-01-11",
        "use_approved": true
      },
      "type": "Feature"
    },
    {
      "geometry": null,
      "properties": {
        "address": "인천광역시 연수구 동춘동 산 14-19 외1필지",
        "approval_date": null,
        "category": "신축",
        "construction_status": "administrative_record_only_not_confirmed_active",
        "coord_valid": false,
        "coordinate_limitations": "상가 주소 위치를 이용한 추정 위치; 공사 현장/측량 좌표 아님; 큰 필지 내 실제 공사 위치와 다를 수 있음",
        "coordinate_source": "소상공인시장진흥공단 상가주소 위치 기반 추정(동일 지번 전체주소 정확일치)",
        "coordinate_status": "unmatched",
        "facility_id": "15029299:74",
        "main_use": "단독주택",
        "name": "단독주택",
        "permit_date": "2019-10-10",
        "retrieved_at": "2026-09-06",
        "source_as_of": "2026-03-09",
        "source_url": "https://www.data.go.kr/data/15029299/fileData.do",
        "start_date": "2023-01-04",
        "use_approved": false
      },
      "type": "Feature"
    },
    {
      "geometry": null,
      "properties": {
        "address": "인천광역시 연수구 옥련동 339 외1필지",
        "approval_date": null,
        "category": "신축",
        "construction_status": "administrative_record_only_not_confirmed_active",
        "coord_valid": false,
        "coordinate_limitations": "상가 주소 위치를 이용한 추정 위치; 공사 현장/측량 좌표 아님; 큰 필지 내 실제 공사 위치와 다를 수 있음",
        "coordinate_source": "소상공인시장진흥공단 상가주소 위치 기반 추정(동일 지번 전체주소 정확일치)",
        "coordinate_status": "unmatched",
        "facility_id": "15029299:8",
        "main_use": "제2종근린생활시설",
        "name": "제2종근린생활시설",
        "permit_date": "2025-09-08",
        "retrieved_at": "2026-09-06",
        "source_as_of": "2026-03-09",
        "source_url": "https://www.data.go.kr/data/15029299/fileData.do",
        "start_date": "2025-09-22",
        "use_approved": false
      },
      "type": "Feature"
    },
    {
      "geometry": null,
      "properties": {
        "address": "인천광역시 연수구 청학동 217-55",
        "approval_date": null,
        "category": "대수선",
        "construction_status": "administrative_record_only_not_confirmed_active",
        "coord_valid": false,
        "coordinate_limitations": "상가 주소 위치를 이용한 추정 위치; 공사 현장/측량 좌표 아님; 큰 필지 내 실제 공사 위치와 다를 수 있음",
        "coordinate_source": "소상공인시장진흥공단 상가주소 위치 기반 추정(동일 지번 전체주소 정확일치)",
        "coordinate_status": "unmatched",
        "facility_id": "15029299:9",
        "main_use": "제2종근린생활시설",
        "name": "제2종근린생활시설",
        "permit_date": "2025-08-27",
        "retrieved_at": "2026-09-06",
        "source_as_of": "2026-03-09",
        "source_url": "https://www.data.go.kr/data/15029299/fileData.do",
        "start_date": "2026-02-09",
        "use_approved": false
      },
      "type": "Feature"
    }
  ],
  "type": "FeatureCollection"
}
